CCSDS_OMM_VERS = 2.0
CREATION_DATE  = 
ORIGINATOR     = 

OBJECT_NAME    = STARLINK-35770
OBJECT_ID      = 2025-288U
CENTER_NAME    = EARTH
REF_FRAME      = TEME
TIME_SYSTEM    = UTC
MEAN_ELEMENT_THEORY = SGP/SGP4

EPOCH          = 2025-12-31T14:00:01.999872
MEAN_MOTION    = 15.50518564
ECCENTRICITY   = .00014769
INCLINATION    = 43.0012
RA_OF_ASC_NODE = 53.5518
ARG_OF_PERICENTER = 277.2007
MEAN_ANOMALY   = 251.4641

EPHEMERIS_TYPE = 0
CLASSIFICATION_TYPE = U
NORAD_CAT_ID   = 66977
ELEMENT_SET_NO = 999
REV_AT_EPOCH   = 485
BSTAR          = .10230487E-2
MEAN_MOTION_DOT = .60007E-3
MEAN_MOTION_DDOT = 0

CCSDS_OMM_VERS = 2.0
CREATION_DATE  = 
ORIGINATOR     = 

OBJECT_NAME    = STARLINK-35787
OBJECT_ID      = 2025-288V
CENTER_NAME    = EARTH
REF_FRAME      = TEME
TIME_SYSTEM    = UTC
MEAN_ELEMENT_THEORY = SGP/SGP4

EPOCH          = 2025-12-31T14:00:01.999872
MEAN_MOTION    = 15.43497747
ECCENTRICITY   = .00003415
INCLINATION    = 43.0010
RA_OF_ASC_NODE = 53.5909
ARG_OF_PERICENTER = 274.3355
MEAN_ANOMALY   = 237.9063

EPHEMERIS_TYPE = 0
CLASSIFICATION_TYPE = U
NORAD_CAT_ID   = 66978
ELEMENT_SET_NO = 999
REV_AT_EPOCH   = 485
BSTAR          = -.61765658E-1
MEAN_MOTION_DOT = -.2505054E-1
MEAN_MOTION_DDOT = 0

CCSDS_OMM_VERS = 2.0
CREATION_DATE  = 
ORIGINATOR     = 

OBJECT_NAME    = STARLINK-36107
OBJECT_ID      = 2025-288W
CENTER_NAME    = EARTH
REF_FRAME      = TEME
TIME_SYSTEM    = UTC
MEAN_ELEMENT_THEORY = SGP/SGP4

EPOCH          = 2025-12-31T14:00:01.999872
MEAN_MOTION    = 15.50558245
ECCENTRICITY   = .00014215
INCLINATION    = 43.0011
RA_OF_ASC_NODE = 53.5318
ARG_OF_PERICENTER = 271.1148
MEAN_ANOMALY   = 265.1865

EPHEMERIS_TYPE = 0
CLASSIFICATION_TYPE = U
NORAD_CAT_ID   = 66979
ELEMENT_SET_NO = 999
REV_AT_EPOCH   = 485
BSTAR          = .2147428E-3
MEAN_MOTION_DOT = .12267E-3
MEAN_MOTION_DDOT = 0

CCSDS_OMM_VERS = 2.0
CREATION_DATE  = 
ORIGINATOR     = 

OBJECT_NAME    = STARLINK-36086
OBJECT_ID      = 2025-288X
CENTER_NAME    = EARTH
REF_FRAME      = TEME
TIME_SYSTEM    = UTC
MEAN_ELEMENT_THEORY = SGP/SGP4

EPOCH          = 2025-12-31T14:00:01.999872
MEAN_MOTION    = 15.50664743
ECCENTRICITY   = .00012973
INCLINATION    = 43.0010
RA_OF_ASC_NODE = 53.5260
ARG_OF_PERICENTER = 259.0940
MEAN_ANOMALY   = 279.1025

EPHEMERIS_TYPE = 0
CLASSIFICATION_TYPE = U
NORAD_CAT_ID   = 66980
ELEMENT_SET_NO = 999
REV_AT_EPOCH   = 485
BSTAR          = -.52703597E-2
MEAN_MOTION_DOT = -.298928E-2
MEAN_MOTION_DDOT = 0

CCSDS_OMM_VERS = 2.0
CREATION_DATE  = 
ORIGINATOR     = 

OBJECT_NAME    = STARLINK-36142
OBJECT_ID      = 2025-288Y
CENTER_NAME    = EARTH
REF_FRAME      = TEME
TIME_SYSTEM    = UTC
MEAN_ELEMENT_THEORY = SGP/SGP4

EPOCH          = 2025-12-31T14:00:01.999872
MEAN_MOTION    = 15.50573179
ECCENTRICITY   = .00014642
INCLINATION    = 43.0012
RA_OF_ASC_NODE = 53.5219
ARG_OF_PERICENTER = 271.1704
MEAN_ANOMALY   = 268.9673

EPHEMERIS_TYPE = 0
CLASSIFICATION_TYPE = U
NORAD_CAT_ID   = 66981
ELEMENT_SET_NO = 999
REV_AT_EPOCH   = 485
BSTAR          = -.27586066E-3
MEAN_MOTION_DOT = -.16487E-3
MEAN_MOTION_DDOT = 0

CCSDS_OMM_VERS = 2.0
CREATION_DATE  = 
ORIGINATOR     = 

OBJECT_NAME    = STARLINK-36113
OBJECT_ID      = 2025-288Z
CENTER_NAME    = EARTH
REF_FRAME      = TEME
TIME_SYSTEM    = UTC
MEAN_ELEMENT_THEORY = SGP/SGP4

EPOCH          = 2025-12-31T14:00:01.999872
MEAN_MOTION    = 15.50512818
ECCENTRICITY   = .00015571
INCLINATION    = 43.0011
RA_OF_ASC_NODE = 53.5158
ARG_OF_PERICENTER = 280.2214
MEAN_ANOMALY   = 261.9378

EPHEMERIS_TYPE = 0
CLASSIFICATION_TYPE = U
NORAD_CAT_ID   = 66982
ELEMENT_SET_NO = 999
REV_AT_EPOCH   = 485
BSTAR          = .35573251E-3
MEAN_MOTION_DOT = .20533E-3
MEAN_MOTION_DDOT = 0

CCSDS_OMM_VERS = 2.0
CREATION_DATE  = 
ORIGINATOR     = 

OBJECT_NAME    = STARLINK-36145
OBJECT_ID      = 2025-288AA
CENTER_NAME    = EARTH
REF_FRAME      = TEME
TIME_SYSTEM    = UTC
MEAN_ELEMENT_THEORY = SGP/SGP4

EPOCH          = 2025-12-31T14:00:01.999872
MEAN_MOTION    = 15.50513844
ECCENTRICITY   = .00010962
INCLINATION    = 43.0011
RA_OF_ASC_NODE = 53.5071
ARG_OF_PERICENTER = 278.8474
MEAN_ANOMALY   = 267.1104

EPHEMERIS_TYPE = 0
CLASSIFICATION_TYPE = U
NORAD_CAT_ID   = 66983
ELEMENT_SET_NO = 999
REV_AT_EPOCH   = 485
BSTAR          = .61868953E-3
MEAN_MOTION_DOT = .36036E-3
MEAN_MOTION_DDOT = 0

CCSDS_OMM_VERS = 2.0
CREATION_DATE  = 
ORIGINATOR     = 

OBJECT_NAME    = STARLINK-35591
OBJECT_ID      = 2025-288AB
CENTER_NAME    = EARTH
REF_FRAME      = TEME
TIME_SYSTEM    = UTC
MEAN_ELEMENT_THEORY = SGP/SGP4

EPOCH          = 2025-12-31T14:00:01.999872
MEAN_MOTION    = 15.50520523
ECCENTRICITY   = .00015392
INCLINATION    = 43.0012
RA_OF_ASC_NODE = 53.5119
ARG_OF_PERICENTER = 284.1529
MEAN_ANOMALY   = 259.8473

EPHEMERIS_TYPE = 0
CLASSIFICATION_TYPE = U
NORAD_CAT_ID   = 66984
ELEMENT_SET_NO = 999
REV_AT_EPOCH   = 485
BSTAR          = .96710817E-3
MEAN_MOTION_DOT = .56687E-3
MEAN_MOTION_DDOT = 0

CCSDS_OMM_VERS = 2.0
CREATION_DATE  = 
ORIGINATOR     = 

OBJECT_NAME    = STARLINK-36103
OBJECT_ID      = 2025-288AC
CENTER_NAME    = EARTH
REF_FRAME      = TEME
TIME_SYSTEM    = UTC
MEAN_ELEMENT_THEORY = SGP/SGP4

EPOCH          = 2025-12-31T14:00:01.999872
MEAN_MOTION    = 15.50590691
ECCENTRICITY   = .00014968
INCLINATION    = 43.0012
RA_OF_ASC_NODE = 53.5032
ARG_OF_PERICENTER = 331.2905
MEAN_ANOMALY   = 216.3806

EPHEMERIS_TYPE = 0
CLASSIFICATION_TYPE = U
NORAD_CAT_ID   = 66985
ELEMENT_SET_NO = 999
REV_AT_EPOCH   = 485
BSTAR          = .66733983E-3
MEAN_MOTION_DOT = .39019E-3
MEAN_MOTION_DDOT = 0

CCSDS_OMM_VERS = 2.0
CREATION_DATE  = 
ORIGINATOR     = 

OBJECT_NAME    = STARLINK-36135
OBJECT_ID      = 2025-288AD
CENTER_NAME    = EARTH
REF_FRAME      = TEME
TIME_SYSTEM    = UTC
MEAN_ELEMENT_THEORY = SGP/SGP4

EPOCH          = 2025-12-31T14:00:01.999872
MEAN_MOTION    = 15.50502147
ECCENTRICITY   = .00015647
INCLINATION    = 43.0011
RA_OF_ASC_NODE = 53.4968
ARG_OF_PERICENTER = 283.4426
MEAN_ANOMALY   = 266.3112

EPHEMERIS_TYPE = 0
CLASSIFICATION_TYPE = U
NORAD_CAT_ID   = 66986
ELEMENT_SET_NO = 999
REV_AT_EPOCH   = 485
BSTAR          = .19443884E-2
MEAN_MOTION_DOT = .115102E-2
MEAN_MOTION_DDOT = 0

CCSDS_OMM_VERS = 2.0
CREATION_DATE  = 
ORIGINATOR     = 

OBJECT_NAME    = STARLINK-36147
OBJECT_ID      = 2025-288AE
CENTER_NAME    = EARTH
REF_FRAME      = TEME
TIME_SYSTEM    = UTC
MEAN_ELEMENT_THEORY = SGP/SGP4

EPOCH          = 2025-12-31T14:00:01.999872
MEAN_MOTION    = 15.50562101
ECCENTRICITY   = .0001067
INCLINATION    = 43.0011
RA_OF_ASC_NODE = 53.4925
ARG_OF_PERICENTER = 285.5874
MEAN_ANOMALY   = 266.0622

EPHEMERIS_TYPE = 0
CLASSIFICATION_TYPE = U
NORAD_CAT_ID   = 66987
ELEMENT_SET_NO = 999
REV_AT_EPOCH   = 485
BSTAR          = -.689018E-6
MEAN_MOTION_DOT = -.382E-5
MEAN_MOTION_DDOT = 0

CCSDS_OMM_VERS = 2.0
CREATION_DATE  = 
ORIGINATOR     = 

OBJECT_NAME    = YAOGAN-47
OBJECT_ID      = 2025-289A
CENTER_NAME    = EARTH
REF_FRAME      = TEME
TIME_SYSTEM    = UTC
MEAN_ELEMENT_THEORY = SGP/SGP4

EPOCH          = 2025-12-28T04:16:32.643840
MEAN_MOTION    = 15.23366104
ECCENTRICITY   = .00008556
INCLINATION    = 97.5253
RA_OF_ASC_NODE = 67.3364
ARG_OF_PERICENTER = 117.9958
MEAN_ANOMALY   = 242.1365

EPHEMERIS_TYPE = 0
CLASSIFICATION_TYPE = U
NORAD_CAT_ID   = 66988
ELEMENT_SET_NO = 999
REV_AT_EPOCH   = 289
BSTAR          = .2072964E-3
MEAN_MOTION_DOT = .4855E-4
MEAN_MOTION_DDOT = 0

