STARLINK-35770          
1 66977U 25288U   25365.58335648  .00060007  00000+0  10230-2 0  9993
2 66977  43.0012  53.5518 0001476 277.2007 251.4641 15.50518564  4857
STARLINK-35787          
1 66978U 25288V   25365.58335648 -.02505054  00000+0 -61766-1 0  9993
2 66978  43.0010  53.5909 0000341 274.3355 237.9063 15.43497747  4852
STARLINK-36107          
1 66979U 25288W   25365.58335648  .00012267  00000+0  21474-3 0  9993
2 66979  43.0011  53.5318 0001421 271.1148 265.1865 15.50558245  4855
STARLINK-36086          
1 66980U 25288X   25365.58335648 -.00298928  00000+0 -52704-2 0  9996
2 66980  43.0010  53.5260 0001297 259.0940 279.1025 15.50664743  4852
STARLINK-36142          
1 66981U 25288Y   25365.58335648 -.00016487  00000+0 -27586-3 0  9996
2 66981  43.0012  53.5219 0001464 271.1704 268.9673 15.50573179  4855
STARLINK-36113          
1 66982U 25288Z   25365.58335648  .00020533  00000+0  35573-3 0  9997
2 66982  43.0011  53.5158 0001557 280.2214 261.9378 15.50512818  4855
STARLINK-36145          
1 66983U 25288AA  25365.58335648  .00036036  00000+0  61869-3 0  9990
2 66983  43.0011  53.5071 0001096 278.8474 267.1104 15.50513844  4854
STARLINK-35591          
1 66984U 25288AB  25365.58335648  .00056687  00000+0  96711-3 0  9999
2 66984  43.0012  53.5119 0001539 284.1529 259.8473 15.50520523  4851
STARLINK-36103          
1 66985U 25288AC  25365.58335648  .00039019  00000+0  66734-3 0  9992
2 66985  43.0012  53.5032 0001496 331.2905 216.3806 15.50590691  4851
STARLINK-36135          
1 66986U 25288AD  25365.58335648  .00115102  00000+0  19444-2 0  9996
2 66986  43.0011  53.4968 0001564 283.4426 266.3112 15.50502147  4854
STARLINK-36147          
1 66987U 25288AE  25365.58335648 -.00000382  00000+0 -68902-6 0  9999
2 66987  43.0011  53.4925 0001067 285.5874 266.0622 15.50562101  4855
YAOGAN-47               
1 66988U 25289A   25362.17815560  .00004855  00000+0  20730-3 0  9990
2 66988  97.5253  67.3364 0000855 117.9958 242.1365 15.23366104  2890
